ONEWEB-0588             
1 55153U 23004P   24127.06395024  .00000069  00000+0  14124-3 0  9992
2 55153  87.9122 129.2096 0002498  79.3376 280.8037 13.18685146 67933
ONEWEB-0598             
1 55154U 23004Q   24126.88338426  .00000518  00000+0  14244-2 0  9996
2 55154  87.8995 174.7253 0002870 101.0692 259.0759 13.11421299 64687
ONEWEB-0599             
1 55155U 23004R   24126.82989033  .00000055  00000+0  10971-3 0  9997
2 55155  87.9187 159.5655 0002185  98.5664 261.5715 13.17647307 65774
ONEWEB-0614             
1 55156U 23004S   24126.87852517  .00000311  00000+0  84204-3 0  9994
2 55156  87.8994 174.7294 0001888  85.8727 274.2616 13.11416925 64613
ONEWEB-0616             
1 55157U 23004T   24126.79666598  .00000117  00000+0  26721-3 0  9992
2 55157  87.9184 159.5822 0001951 129.6335 230.4969 13.17647595 65988
ONEWEB-0617             
1 55158U 23004U   24126.63826206 -.00000184  00000+0 -55528-3 0  9993
2 55158  87.8992 174.7741 0002225  84.8303 275.3079 13.11419421 64603
ONEWEB-0618             
1 55159U 23004V   24126.96093699  .00000322  00000+0  12500-3 0  9997
2 55159  86.9032 108.3143 0015571  65.2284 295.0526 14.26809559 69329
ONEWEB-0619             
1 55160U 23004W   24127.13205321 -.00000067  00000+0 -20478-3 0  9997
2 55160  87.9185 159.4922 0001573 102.7024 257.4284 13.17648857 65925
